- !!map
  id:                 0
  name:               Sun
  radius:             1000000
  mass:               2.9130918e+28
  stdGravParam:       1944284860074000000
  soi:                .inf
  color:              0xffff00

- !!map
  id:                 1
  name:               Fury
  radius:             700000
  atmosphereAlt:      80000
  mass:               7.415633482162924e+22
  stdGravParam:       4949416255000
  soi:                66411806.05130031
  orbit:
    semiMajorAxis:    11479623815
    eccentricity:     0.074
    inclination:      0.034
    argOfPeriapsis:   0
    ascNodeLongitude: 0
  meanAnomaly0:       45
  epoch:              0
  orbiting:           0
  color:              0xff3f0

- !!map
  id:                 2
  name:               Anger
  radius:             29000
  mass:               4942776111352502000
  stdGravParam:       329895706
  soi:                59114.569493345996
  orbit:
    semiMajorAxis:    2767996
    eccentricity:     0
    inclination:      0
    argOfPeriapsis:   80
    ascNodeLongitude: 43
  meanAnomaly0:       0
  epoch:              0
  orbiting:           1
  color:              0xNaN

- !!map
  id:                 3
  name:               Hydrus
  radius:             245000
  atmosphereAlt:      50000
  mass:               2.6458692278591014e+21
  stdGravParam:       176593249875
  soi:                32002315.634428214
  orbit:
    semiMajorAxis:    20984359719
    eccentricity:     0.03
    inclination:      0.7
    argOfPeriapsis:   0.6
    ascNodeLongitude: 56
  meanAnomaly0:       45
  epoch:              0
  orbiting:           0
  color:              0xffff7f

- !!map
  id:                 4
  name:               Hydron
  radius:             23100
  mass:               4469035117847564300
  stdGravParam:       298276810.87049997
  soi:                163937.4472703334
  orbit:
    semiMajorAxis:    2106784
    eccentricity:     0
    inclination:      1
    argOfPeriapsis:   80
    ascNodeLongitude: 43
  meanAnomaly0:       0
  epoch:              0
  orbiting:           3
  color:              0xNaN

- !!map
  id:                 5
  name:               Kerbin
  radius:             450000
  atmosphereAlt:      50000
  mass:               2.320783254423685e+22
  stdGravParam:       1548960367500
  soi:                101361456.21610224
  orbit:
    semiMajorAxis:    27884359719
    eccentricity:     0
    inclination:      0
    argOfPeriapsis:   0
    ascNodeLongitude: 0
  meanAnomaly0:       3.14000010490417
  epoch:              0
  orbiting:           0
  color:              0xcc7f4c

- !!map
  id:                 6
  name:               Lua
  radius:             156000
  atmosphereAlt:      10000
  mass:               586418950925190700000
  stdGravParam:       39139360041.6
  soi:                1021855.2411332881
  orbit:
    semiMajorAxis:    4450000
    eccentricity:     0
    inclination:      0
    argOfPeriapsis:   0
    ascNodeLongitude: 0
  meanAnomaly0:       1.95376552864507
  epoch:              3750
  orbiting:           5
  color:              0xcccccc

- !!map
  id:                 7
  name:               Armstrong
  radius:             20000
  mass:               2644767241508473000
  stdGravParam:       176519700
  soi:                225147.20269022498
  orbit:
    semiMajorAxis:    8506784
    eccentricity:     0.13
    inclination:      3
    argOfPeriapsis:   80
    ascNodeLongitude: 43
  meanAnomaly0:       0
  epoch:              0
  orbiting:           5
  color:              0xNaN

- !!map
  id:                 8
  name:               Ash
  radius:             250000
  mass:               2.754965876571326e+21
  stdGravParam:       183874687500
  soi:                17356496.856227923
  orbit:
    semiMajorAxis:    40707030
    eccentricity:     0.04
    inclination:      3
    argOfPeriapsis:   3
    ascNodeLongitude: 89
  meanAnomaly0:       0
  epoch:              65
  orbiting:           5
  color:              0xNaN

- !!map
  id:                 9
  name:               Scaythe
  radius:             400000
  mass:               1.3165063602175511e+22
  stdGravParam:       878675840000.0001
  soi:                116440743.79899673
  orbit:
    semiMajorAxis:    40186247496
    eccentricity:     0
    inclination:      0
    argOfPeriapsis:   50
    ascNodeLongitude: 220
  meanAnomaly0:       0
  epoch:              65
  orbiting:           0
  color:              0xNaN

- !!map
  id:                 10
  name:               Scindo
  radius:             123000
  mass:               148936100054687380000
  stdGravParam:       9940442125.949999
  soi:                899134.3017130202
  orbit:
    semiMajorAxis:    5400000
    eccentricity:     0.2
    inclination:      1.1
    argOfPeriapsis:   0
    ascNodeLongitude: 0
  meanAnomaly0:       3.1280976
  epoch:              0
  orbiting:           9
  color:              0xcccccc

- !!map
  id:                 11
  name:               Gateway
  radius:             10000000
  atmosphereAlt:      240000
  mass:               5.23e+24
  stdGravParam:       349065890000000
  soi:                1550603018.6456814
  orbit:
    semiMajorAxis:    48847418599
    eccentricity:     0.07
    inclination:      2
    argOfPeriapsis:   13
    ascNodeLongitude: 43
  meanAnomaly0:       0
  epoch:              0
  orbiting:           0
  color:              0xNaN

- !!map
  id:                 12
  name:               Proxim
  radius:             50000
  mass:               36732878354284347000
  stdGravParam:       2451662500
  soi:                198141.77826999576
  orbit:
    semiMajorAxis:    22822055
    eccentricity:     0
    inclination:      3.7
    argOfPeriapsis:   50
    ascNodeLongitude: 95.48766016
  meanAnomaly0:       0
  epoch:              65
  orbiting:           11
  color:              0xNaN

- !!map
  id:                 13
  name:               Kohm
  radius:             450000
  atmosphereAlt:      50000
  mass:               2.3802905173576257e+22
  stdGravParam:       1588677300000
  soi:                5074550.186025771
  orbit:
    semiMajorAxis:    43867839
    eccentricity:     0
    inclination:      7.3
    argOfPeriapsis:   0.6
    ascNodeLongitude: 56
  meanAnomaly0:       45
  epoch:              0
  orbiting:           11
  color:              0xff7f

- !!map
  id:                 14
  name:               Eidos
  radius:             60000
  mass:               37026741381118620000
  stdGravParam:       2471275800
  soi:                571067.4980851568
  orbit:
    semiMajorAxis:    65566488
    eccentricity:     0.09
    inclination:      0.03
    argOfPeriapsis:   50
    ascNodeLongitude: 14
  meanAnomaly0:       0.6
  epoch:              34
  orbiting:           11
  color:              0xNaN

- !!map
  id:                 15
  name:               Ansia
  radius:             50000
  mass:               16529795259427957000
  stdGravParam:       1103248125
  soi:                451898.98972795106
  orbit:
    semiMajorAxis:    71636615
    eccentricity:     0.08
    inclination:      5.521519
    argOfPeriapsis:   220
    ascNodeLongitude: 42.7
  meanAnomaly0:       4.30250976
  epoch:              0
  orbiting:           11
  color:              0x7f4c4c

- !!map
  id:                 16
  name:               Jade
  radius:             360000
  mass:               7.997776138321621e+21
  stdGravParam:       533795572799.99994
  soi:                11819912.044452542
  orbit:
    semiMajorAxis:    158061909
    eccentricity:     0
    inclination:      0.025
    argOfPeriapsis:   1
    ascNodeLongitude: 0
  meanAnomaly0:       324
  epoch:              0
  orbiting:           11
  color:              0xc6b2cc

- !!map
  id:                 17
  name:               Rock
  radius:             500000
  mass:               3.0120960250513166e+22
  stdGravParam:       2010363250000
  soi:                235230062.09759718
  orbit:
    semiMajorAxis:    58302471634
    eccentricity:     0.02
    inclination:      0.01
    argOfPeriapsis:   50
    ascNodeLongitude: 220
  meanAnomaly0:       0
  epoch:              65
  orbiting:           0
  color:              0xNaN

- !!map
  id:                 18
  name:               Vasto
  radius:             400000
  atmosphereAlt:      35000
  mass:               1.245979233777325e+22
  stdGravParam:       831603920000
  soi:                242740585.2879268
  orbit:
    semiMajorAxis:    85640607902
    eccentricity:     0.2134
    inclination:      4.141164757
    argOfPeriapsis:   5
    ascNodeLongitude: 0
  meanAnomaly0:       90
  epoch:              0
  orbiting:           0
  color:              0xcccce5

- !!map
  id:                 19
  name:               Voss
  radius:             133000
  mass:               363870015717004100000
  stdGravParam:       24285776459
  soi:                2057655.892098894
  orbit:
    semiMajorAxis:    8456654
    eccentricity:     0.04
    inclination:      3.5
    argOfPeriapsis:   2
    ascNodeLongitude: 3
  meanAnomaly0:       1
  epoch:              0
  orbiting:           18
  color:              0x7f7f7f
